NORAD_CAT_ID,OBJECT_NAME,OBJECT_TYPE,EPOCH,MEAN_MOTION,ECCENTRICITY,INCLINATION,RA_OF_ASC_NODE,ARG_OF_PERICENTER,MEAN_ANOMALY,BSTAR,MEAN_MOTION_DOT,MEAN_MOTION_DDOT,TLE_LINE0,TLE_LINE1,TLE_LINE2,SEMIMAJOR_AXIS,PERIOD,APOGEE,PERIGEE,DECAYED
51743.0,STARLINK-3512,PAYLOAD,2024-07-19 21:29:11,15.08849732,0.0001508,53.2163,112.6423,107.4909,252.6248,0.0010246,0.0001606,0.0,0 STARLINK-3512,1 51743U 22016AF  24201.89527378  .00016060  00000-0  10246-2 0  9997,2 51743  53.2163 112.6423 0001508 107.4909 252.6248 15.08849732133457,6917.851,95.437,540.759,538.672,0.0
51743.0,STARLINK-3512,PAYLOAD,2024-07-20 03:50:44,15.08849674,0.0001656,53.2175,111.4563,87.1678,272.9504,0.0010554,0.00016553,0.0,0 STARLINK-3512,1 51743U 22016AF  24202.16023510  .00016553  00000-0  10554-2 0  9996,2 51743  53.2175 111.4563 0001656  87.1678 272.9504 15.08849674133492,6917.851,95.437,540.861,538.57,0.0
51743.0,STARLINK-3512,PAYLOAD,2024-07-20 21:19:58,15.08846027,0.0001575,53.2155,108.1791,96.2234,263.8937,0.00051954,7.992e-05,0.0,0 STARLINK-3512,1 51743U 22016AF  24202.88887596  .00007992  00000-0  51954-3 0  9994,2 51743  53.2155 108.1791 0001575  96.2234 263.8937 15.08846027134742,6917.862,95.437,540.817,538.637,0.0
51743.0,STARLINK-3512,PAYLOAD,2024-07-20 22:55:22,15.08843517,0.0001656,53.217,107.8826,93.8138,266.3043,0.00027789,4.138e-05,0.0,0 STARLINK-3512,1 51743U 22016AF  24202.95511581  .00004138  00000-0  27789-3 0  9998,2 51743  53.2170 107.8826 0001656  93.8138 266.3043 15.08843517133612,6917.87,95.437,540.88,538.589,0.0
51743.0,STARLINK-3512,PAYLOAD,2024-07-21 00:30:45,15.0885051,0.0001366,53.2163,107.5871,93.9736,266.1412,0.00057823,8.929e-05,0.0,0 STARLINK-3512,1 51743U 22016AF  24203.02135482  .00008929  00000-0  57823-3 0  9993,2 51743  53.2163 107.5871 0001366  93.9736 266.1412 15.08850510133624,6917.848,95.437,540.658,538.768,0.0
51743.0,STARLINK-3512,PAYLOAD,2024-07-21 21:10:45,15.08845,0.0001522,53.2168,103.7263,99.6617,260.4547,0.00032062,4.819e-05,0.0,0 STARLINK-3512,1 51743U 22016AF  24203.88247650  .00004819  00000-0  32062-3 0  9990,2 51743  53.2168 103.7263 0001522  99.6617 260.4547 15.08845000134891,6917.865,95.437,540.783,538.677,0.0
51743.0,STARLINK-3512,PAYLOAD,2024-07-22 03:32:18,15.08850288,0.0001366,53.2163,102.5352,90.4222,269.6926,0.00054039,8.325e-05,0.0,0 STARLINK-3512,1 51743U 22016AF  24204.14743433  .00008325  00000-0  54039-3 0  9994,2 51743  53.2163 102.5352 0001366  90.4222 269.6926 15.08850288133793,6917.849,95.437,540.659,538.769,0.0
51743.0,STARLINK-3512,PAYLOAD,2024-07-22 22:36:56,15.08833089,0.0001619,53.2152,98.9599,131.5516,228.5615,0.00016192,2.289e-05,0.0,0 STARLINK-3512,1 51743U 22016AF  24204.94231950  .00002289  00000-0  16192-3 0  9999,2 51743  53.2152  98.9599 0001619 131.5516 228.5615 15.08833089133919,6917.902,95.438,540.887,538.647,0.0
51743.0,STARLINK-3512,PAYLOAD,2024-07-23 09:44:39,15.08830926,0.0001325,53.2155,96.8788,82.364,277.7503,0.00036624,5.544e-05,0.0,0 STARLINK-3512,1 51743U 22016AF  24205.40600824  .00005544  00000-0  36624-3 0  9990,2 51743  53.2155  96.8788 0001325  82.3640 277.7503 15.08830926135128,6917.908,95.438,540.69,538.857,0.0
51743.0,STARLINK-3512,PAYLOAD,2024-07-23 22:27:44,15.08844401,0.0001323,53.2151,94.4988,75.4274,284.6865,0.00038131,5.787e-05,0.0,0 STARLINK-3512,1 51743U 22016AF  24205.93592660  .00005787  00000-0  38131-3 0  9990,2 51743  53.2151  94.4988 0001323  75.4274 284.6865 15.08844401134067,6917.867,95.437,540.647,538.817,0.0
51743.0,STARLINK-3512,PAYLOAD,2024-07-24 01:38:30,15.08854349,0.0001409,53.2154,93.912,110.1023,250.0121,0.00082989,0.0001295,0.0,0 STARLINK-3512,1 51743U 22016AF  24206.06840443  .00012950  00000-0  82989-3 0  9990,2 51743  53.2154  93.9120 0001409 110.1023 250.0121 15.08854349135229,6917.837,95.437,540.676,538.727,0.0
51743.0,STARLINK-3512,PAYLOAD,2024-07-24 22:18:30,15.08857014,0.0001422,53.2142,90.0408,132.1289,227.9824,0.00039715,6.041e-05,0.0,0 STARLINK-3512,1 51743U 22016AF  24206.92951692  .00006041  00000-0  39715-3 0  9997,2 51743  53.2142  90.0408 0001422 132.1289 227.9824 15.08857014134219,6917.828,95.436,540.677,538.71,0.0
51743.0,STARLINK-3512,PAYLOAD,2024-07-25 01:29:16,15.08859155,0.0001407,53.2145,89.4475,135.3526,224.758,0.00043756,6.686e-05,0.0,0 STARLINK-3512,1 51743U 22016AF  24207.06199532  .00006686  00000-0  43756-3 0  9995,2 51743  53.2145  89.4475 0001407 135.3526 224.7580 15.08859155135370,6917.822,95.436,540.66,538.714,0.0
51743.0,STARLINK-3512,PAYLOAD,2024-07-25 15:47:45,15.08842314,0.0001431,53.2158,86.7761,106.8322,253.2827,9.9099e-05,1.29e-05,0.0,0 STARLINK-3512,1 51743U 22016AF  24207.65816097  .00001290  00000-0  99099-4 0  9990,2 51743  53.2158  86.7761 0001431 106.8322 253.2827 15.08842314135466,6917.873,95.437,540.728,538.748,0.0
51743.0,STARLINK-3512,PAYLOAD,2024-07-25 22:09:17,15.08845105,0.0002172,53.2156,85.5835,146.8767,213.2361,0.00019729,2.854e-05,0.0,0 STARLINK-3512,1 51743U 22016AF  24207.92311759  .00002854  00000-0  19729-3 0  9993,2 51743  53.2156  85.5835 0002172 146.8767 213.2361 15.08845105134361,6917.865,95.437,541.232,538.227,0.0
51743.0,STARLINK-3512,PAYLOAD,2024-07-26 09:16:59,15.0884137,0.0001184,53.2142,83.5059,93.2693,266.8434,0.0004757,7.291e-05,0.0,0 STARLINK-3512,1 51743U 22016AF  24208.38680363  .00007291  00000-0  47570-3 0  9999,2 51743  53.2142  83.5059 0001184  93.2693 266.8434 15.08841370134430,6917.876,95.437,540.56,538.922,0.0
51743.0,STARLINK-3512,PAYLOAD,2024-07-26 22:00:04,15.08852785,0.0001196,53.2142,81.1263,88.9522,271.1607,0.0005643,8.707e-05,0.0,0 STARLINK-3512,1 51743U 22016AF  24208.91671993  .00008707  00000-0  56430-3 0  9995,2 51743  53.2142  81.1263 0001196  88.9522 271.1607 15.08852785134518,6917.841,95.437,540.534,538.879,0.0
51743.0,STARLINK-3512,PAYLOAD,2024-07-27 21:50:51,15.08840782,0.0001058,53.2138,76.6648,87.5412,272.5701,5.8828e-05,6.49e-06,0.0,0 STARLINK-3512,1 51743U 22016AF  24209.91032093  .00000649  00000-0  58828-4 0  9999,2 51743  53.2138  76.6648 0001058  87.5412 272.5701 15.08840782134669,6917.878,95.438,540.475,539.011,0.0
51743.0,STARLINK-3512,PAYLOAD,2024-07-28 20:06:16,15.08824612,9.85e-05,53.2147,72.502,98.655,261.4554,0.00018753,2.697e-05,0.0,0 STARLINK-3512,1 51743U 22016AF  24210.83769331  .00002697  00000-0  18753-3 0  9991,2 51743  53.2147  72.5020 0000985  98.6550 261.4554 15.08824612135941,6917.927,95.439,540.474,539.111,0.0
51743.0,STARLINK-3512,PAYLOAD,2024-07-29 07:13:58,15.08829682,0.000108,53.2158,70.4186,84.8033,275.3082,7.4085e-06,-1.7e-06,0.0,0 STARLINK-3512,1 51743U 22016AF  24211.30137548 -.00000170  00000-0  74085-5 0  9990,2 51743  53.2158  70.4186 0001080  84.8033 275.3082 15.08829682134876,6917.912,95.438,540.524,539.03,0.0
51743.0,STARLINK-3512,PAYLOAD,2024-07-29 21:32:26,15.08842618,0.0001036,53.2154,67.7455,83.8648,276.2462,0.0001965,2.841e-05,0.0,0 STARLINK-3512,1 51743U 22016AF  24211.89752568  .00002841  00000-0  19650-3 0  9990,2 51743  53.2154  67.7455 0001036  83.8648 276.2462 15.08842618136106,6917.872,95.437,540.454,539.021,0.0
51743.0,STARLINK-3512,PAYLOAD,2024-07-30 15:01:41,15.08837101,0.0001289,53.217,64.4748,94.8585,265.2555,0.00026272,3.895e-05,0.0,0 STARLINK-3512,1 51743U 22016AF  24212.62616912  .00003895  00000-0  26272-3 0  9992,2 51743  53.2170  64.4748 0001289  94.8585 265.2555 15.08837101135072,6917.889,95.438,540.646,538.863,0.0
51743.0,STARLINK-3512,PAYLOAD,2024-07-30 21:23:13,15.0884574,0.0001283,53.2161,63.2842,83.6719,276.4419,0.00029738,4.449e-05,0.0,0 STARLINK-3512,1 51743U 22016AF  24212.89112665  .00004449  00000-0  29738-3 0  9993,2 51743  53.2161  63.2842 0001283  83.6719 276.4419 15.08845740135119,6917.863,95.437,540.615,538.84,0.0
51743.0,STARLINK-3512,PAYLOAD,2024-07-31 13:17:04,15.08844009,0.0001748,53.2177,60.3143,100.9171,259.2018,-1.0773e-06,-3.05e-06,0.0,0 STARLINK-3512,1 51743U 22016AF  24213.55352688 -.00000305  00000-0 -10773-5 0  9998,2 51743  53.2177  60.3143 0001748 100.9171 259.2018 15.08844009135211,6917.868,95.437,540.942,538.524,0.0
51743.0,STARLINK-3512,PAYLOAD,2024-07-31 21:14:00,15.088433,0.000138,53.2172,58.8247,96.214,263.9009,6.1075e-06,-1.91e-06,0.0,0 STARLINK-3512,1 51743U 22016AF  24213.88473173 -.00000191  00000-0  61075-5 0  9990,2 51743  53.2172  58.8247 0001380  96.2140 263.9009 15.08843300135268,6917.87,95.437,540.69,538.781,0.0
51743.0,STARLINK-3512,PAYLOAD,2024-08-01 13:07:51,15.08848258,0.0001422,53.2178,55.8504,94.3821,265.7334,0.00011927,1.611e-05,0.0,0 STARLINK-3512,1 51743U 22016AF  24214.54712405  .00001611  00000-0  11927-3 0  9994,2 51743  53.2178  55.8504 0001422  94.3821 265.7334 15.08848258135368,6917.855,95.437,540.704,538.736,0.0
51743.0,STARLINK-3512,PAYLOAD,2024-08-01 19:29:23,15.0885597,0.0001231,53.2161,54.6603,89.4397,270.6736,0.00015706,2.214e-05,0.0,0 STARLINK-3512,1 51743U 22016AF  24214.81207805  .00002214  00000-0  15706-3 0  9996,2 51743  53.2161  54.6603 0001231  89.4397 270.6736 15.08855970136549,6917.832,95.437,540.548,538.845,0.0
51743.0,STARLINK-3512,PAYLOAD,2024-08-02 12:58:39,15.08834977,0.0001991,53.2168,51.3908,87.4424,272.6796,0.00014298,1.988e-05,0.0,0 STARLINK-3512,1 51743U 22016AF  24215.54073222  .00001988  00000-0  14298-3 0  9993,2 51743  53.2168  51.3908 0001991  87.4424 272.6796 15.08834977136654,6917.896,95.438,541.138,538.383,0.0
51743.0,STARLINK-3512,PAYLOAD,2024-08-02 22:30:57,15.08839148,0.000155,53.2162,49.604,100.5816,259.5351,9.595e-05,1.239e-05,0.0,0 STARLINK-3512,1 51743U 22016AF  24215.93816884  .00001239  00000-0  95950-4 0  9999,2 51743  53.2162  49.6040 0001550 100.5816 259.5351 15.08839148135574,6917.883,95.438,540.82,538.676,0.0
51743.0,STARLINK-3512,PAYLOAD,2024-08-03 12:49:25,15.08844168,0.0001607,53.2163,46.9273,104.3614,255.7556,0.00031883,4.79e-05,0.0,0 STARLINK-3512,1 51743U 22016AF  24216.53432870  .00004790  00000-0  31883-3 0  9994,2 51743  53.2163  46.9273 0001607 104.3614 255.7556 15.08844168135667,6917.868,95.437,540.844,538.621,0.0
